ELEKTRO-L 3             
1 44903U 19095A   26202.98781726 -.00000094  00000+0  00000+0 0  9996
2 44903   0.3440  82.4298 0001627  19.2011 269.7081  1.00272026 24050
SHIJIAN-20 (SJ-20)      
1 44910U 19097A   26201.84103699  .00000132  00000+0  00000+0 0  9999
2 44910   5.0023  74.6500 0015580  57.9055 153.5938  1.00272475 24033
TJS-5                   
1 44978U 20002A   26201.63128227 -.00000343  00000+0  00000+0 0  9997
2 44978   0.0784  79.4557 0008137 337.0777 216.6301  1.00271413 24041
GSAT-30                 
1 45026U 20005A   26203.14350167 -.00000162  00000+0  00000+0 0  9992
2 45026   0.0309 237.3851 0003371 214.5142 342.6672  1.00272841 23856
EUTELSAT KONNECT        
1 45027U 20005B   26203.19280741  .00000052  00000+0  00000+0 0  9995
2 45027   0.0674  94.5103 0001851 138.1650 143.8685  1.00269584 24688
JCSAT-17                
1 45245U 20013A   26202.85712440 -.00000312  00000+0  00000+0 0  9994
2 45245   5.3923 357.1970 0003305 131.6608 255.3373  1.00272617 23584
GEO-KOMPSAT-2B          
1 45246U 20013B   26202.71300580 -.00000342  00000+0  00000+0 0  9991
2 45246   0.0440 230.2389 0000405 311.2223 142.9465  1.00272054 23626
BEIDOU-3 G2             
1 45344U 20017A   26203.13104876 -.00000140  00000+0  00000+0 0  9997
2 45344   2.9338  47.8392 0002050  57.2954 321.9528  1.00272648 23611
AEHF-6 (USA 298)        
1 45465U 20022B   26203.28506681 -.00000293  00000+0  00000+0 0  9992
2 45465   2.4729 301.6196 0041704  15.5144 223.2527  1.00269370 23367
BEIDOU-3 G3             
1 45807U 20040A   26203.27978012 -.00000353  00000+0  00000+0 0  9999
2 45807   2.5317  67.5021 0002314 315.6336 128.1601  1.00273483 22429
APSTAR-6D               
1 45863U 20045A   26202.99925731 -.00000316  00000+0  00000+0 0  9993
2 45863   0.0403  93.0469 0003038 344.6705 355.7912  1.00259401 22209
KOREASAT 116            
1 45920U 20048A   26203.06704500 -.00000359  00000+0  00000+0 0  9995
2 45920   0.0183  31.4493 0001078  88.6928 319.9996  1.00273473 21988
EXPRESS 103             
1 45985U 20053A   26203.02475324 -.00000278  00000+0  00000+0 0  9997
2 45985   0.0379 262.7514 0000432 126.5116  15.9174  1.00272293 21994
EXPRESS 80              
1 45986U 20053B   26202.94528028 -.00000138  00000+0  00000+0 0  9993
2 45986   0.0130 331.3830 0000376 104.5049 284.1034  1.00293726 21979
BSAT-4B                 
1 46112U 20056A   26203.27952012 -.00000347  00000+0  00000+0 0  9991
2 46112   0.0438 214.8958 0004530 274.1928  21.3908  1.00272833 21746
MEV-2                   
1 46113U 20056B   26202.97256385 -.00000008  00000+0  00000+0 0  9992
2 46113   0.0563 255.0025 0000168 273.6635 120.1792  1.00272464 81059
GALAXY 30 (G-30)        
1 46114U 20056C   26202.66287383  .00000039  00000+0  00000+0 0  9994
2 46114   0.0168  63.2469 0002201  53.4298 296.3683  1.00271000 21639
GAOFEN-13 01            
1 46610U 20071A   26203.28125345 -.00000360  00000+0  00000+0 0  9998
2 46610   0.4863  86.0648 0044415 119.8343 313.6237  1.00274908 21277
TIANTONG-1 2            
1 46916U 20082A   26202.85495772 -.00000353  00000+0  00000+0 0  9997
2 46916   0.7507 332.8108 0001426 135.8095 263.7115  1.00270997 21009
LUCAS (JDRS-1)          
1 47202U 20089A   26203.13239132 -.00000233  00000+0  00000+0 0  9998
2 47202   0.0592 268.1978 0002039 190.7405 339.3991  1.00272750 20760
SXM-7                   
1 47240U 20096A   26202.24304721 -.00000204  00000+0  00000+0 0  9994
2 47240   0.0221 102.3072 0003716  11.6608 187.3788  1.00272034  7781
CMS-01                  
1 47256U 20099A   26203.14350167 -.00000162  00000+0  00000+0 0  9992
2 47256   0.0167  73.4618 0003385 194.4839 166.6104  1.00272829 20542
TURKSAT 5A              
1 47306U 21001A   26203.03124937  .00000157  00000+0  00000+0 0  9997
2 47306   0.0186  78.5014 0000106  19.4145 244.0250  1.00272223 20315
TIANTONG-1 3            
1 47321U 21003A   26202.98885726 -.00000150  00000+0  00000+0 0  9993
2 47321   1.7307 341.5114 0003286 142.9065 252.8036  1.00270021 20317
TJS-6                   
1 47613U 21010A   26203.16294780  .00000047  00000+0  00000+0 0  9994
2 47613   0.1611 261.1074 0003249 236.7888  39.2004  1.00275190 20165
SBIRS GEO-5 (USA 315)   
1 48618U 21042A   26202.82475126 -.00000262  00000+0  00000+0 0  9992
2 48618   5.0604 329.3864 0001752 153.4651 207.4368  1.00271678 19113
FENGYUN 4B              
1 48808U 21047A   26202.85088436 -.00000328  00000+0  00000+0 0  9998
2 48808   0.2367  80.3227 0006851 274.4575 355.7780  1.00276904 18917
SXM-8                   
1 48838U 21049A   26203.24103992 -.00000202  00000+0  00000+0 0  9993
2 48838   0.0162  49.9106 0005906 344.7609 266.9437  1.00271434 18934
TIANLIAN 1-05           
1 49011U 21063A   26202.87906664  .00000109  00000+0  00000+0 0  9993
2 49011   1.6809  80.4116 0001290  84.1556 108.3495  1.00269588 18426
STAR ONE D2             
1 49055U 21069A   26202.88763119  .00000000  00000+0  00000+0 0  9994
2 49055   0.0096  42.8430 0002415  99.4895  46.7904  1.00269235 18295
EUTELSAT QUANTUM        
1 49056U 21069B   26203.12472207  .00000129  00000+0  00000+0 0  9990
2 49056   0.0379 281.7978 0002213 191.1601 279.5257  1.00273888 18276
ZHONGXING-2E            
1 49062U 21071A   26203.27735344 -.00000288  00000+0  00000+0 0  9997
2 49062   0.0427 229.1931 0001310 269.4567 359.2988  1.00271687 18394
