OBJECT_NAME,OBJECT_ID,EPOCH,MEAN_MOTION,ECCENTRICITY,INCLINATION,RA_OF_ASC_NODE,ARG_OF_PERICENTER,MEAN_ANOMALY,EPHEMERIS_TYPE,CLASSIFICATION_TYPE,NORAD_CAT_ID,ELEMENT_SET_NO,REV_AT_EPOCH,BSTAR,MEAN_MOTION_DOT,MEAN_MOTION_DDOT
ELEKTRO-L 3,2019-095A,2026-07-21T23:42:27.411264,1.00272026,.00016271,0.3440,82.4298,19.2011,269.7081,0,U,44903,999,2405,0,-.94E-6,0
SHIJIAN-20 (SJ-20),2019-097A,2026-07-20T20:11:05.595936,1.00272475,.001558,5.0023,74.6500,57.9055,153.5938,0,U,44910,999,2403,0,.132E-5,0
TJS-5,2020-002A,2026-07-20T15:09:02.788128,1.00271413,.0008137,0.0784,79.4557,337.0777,216.6301,0,U,44978,999,2404,0,-.343E-5,0
GSAT-30,2020-005A,2026-07-22T03:26:38.544288,1.00272841,.00033715,0.0309,237.3851,214.5142,342.6672,0,U,45026,999,2385,0,-.162E-5,0
EUTELSAT KONNECT,2020-005B,2026-07-22T04:37:38.560224,1.00269584,.00018512,0.0674,94.5103,138.1650,143.8685,0,U,45027,999,2468,0,.52E-6,0
JCSAT-17,2020-013A,2026-07-21T20:34:15.548160,1.00272617,.00033051,5.3923,357.1970,131.6608,255.3373,0,U,45245,999,2358,0,-.312E-5,0
GEO-KOMPSAT-2B,2020-013B,2026-07-21T17:06:43.701120,1.00272054,.00004054,0.0440,230.2389,311.2223,142.9465,0,U,45246,999,2362,0,-.342E-5,0
BEIDOU-3 G2,2020-017A,2026-07-22T03:08:42.612864,1.00272648,.00020507,2.9338,47.8392,57.2954,321.9528,0,U,45344,999,2361,0,-.14E-5,0
AEHF-6 (USA 298),2020-022B,2026-07-22T06:50:29.772384,1.00269370,.00417045,2.4729,301.6196,15.5144,223.2527,0,U,45465,999,2336,0,-.293E-5,0
BEIDOU-3 G3,2020-040A,2026-07-22T06:42:53.002368,1.00273483,.0002314,2.5317,67.5021,315.6336,128.1601,0,U,45807,999,2242,0,-.353E-5,0
APSTAR-6D,2020-045A,2026-07-21T23:58:55.831584,1.00259401,.00030388,0.0403,93.0469,344.6705,355.7912,0,U,45863,999,2220,0,-.316E-5,0
KOREASAT 116,2020-048A,2026-07-22T01:36:32.688000,1.00273473,.00010781,0.0183,31.4493,88.6928,319.9996,0,U,45920,999,2198,0,-.359E-5,0
EXPRESS 103,2020-053A,2026-07-22T00:35:38.679936,1.00272293,.00004322,0.0379,262.7514,126.5116,15.9174,0,U,45985,999,2199,0,-.278E-5,0
EXPRESS 80,2020-053B,2026-07-21T22:41:12.216192,1.00293726,.00003762,0.0130,331.3830,104.5049,284.1034,0,U,45986,999,2197,0,-.138E-5,0
BSAT-4B,2020-056A,2026-07-22T06:42:30.538368,1.00272833,.000453,0.0438,214.8958,274.1928,21.3908,0,U,46112,999,2174,0,-.347E-5,0
MEV-2,2020-056B,2026-07-21T23:20:29.516640,1.00272464,.00001682,0.0563,255.0025,273.6635,120.1792,0,U,46113,999,8105,0,-.8E-7,0
GALAXY 30 (G-30),2020-056C,2026-07-21T15:54:32.298912,1.00271000,.0002201,0.0168,63.2469,53.4298,296.3683,0,U,46114,999,2163,0,.39E-6,0
GAOFEN-13 01,2020-071A,2026-07-22T06:45:00.298080,1.00274908,.00444152,0.4863,86.0648,119.8343,313.6237,0,U,46610,999,2127,0,-.36E-5,0
TIANTONG-1 2,2020-082A,2026-07-21T20:31:08.347008,1.00270997,.00014267,0.7507,332.8108,135.8095,263.7115,0,U,46916,999,2100,0,-.353E-5,0
LUCAS (JDRS-1),2020-089A,2026-07-22T03:10:38.610048,1.00272750,.0002039,0.0592,268.1978,190.7405,339.3991,0,U,47202,999,2076,0,-.233E-5,0
SXM-7,2020-096A,2026-07-21T05:49:59.278944,1.00272034,.00037162,0.0221,102.3072,11.6608,187.3788,0,U,47240,999,778,0,-.204E-5,0
CMS-01,2020-099A,2026-07-22T03:26:38.544288,1.00272829,.00033857,0.0167,73.4618,194.4839,166.6104,0,U,47256,999,2054,0,-.162E-5,0
TURKSAT 5A,2021-001A,2026-07-22T00:44:59.945568,1.00272223,.00001064,0.0186,78.5014,19.4145,244.0250,0,U,47306,999,2031,0,.157E-5,0
TIANTONG-1 3,2021-003A,2026-07-21T23:43:57.267264,1.00270021,.0003286,1.7307,341.5114,142.9065,252.8036,0,U,47321,999,2031,0,-.15E-5,0
TJS-6,2021-010A,2026-07-22T03:54:38.689920,1.00275190,.00032495,0.1611,261.1074,236.7888,39.2004,0,U,47613,999,2016,0,.47E-6,0
SBIRS GEO-5 (USA 315),2021-042A,2026-07-21T19:47:38.508864,1.00271678,.00017529,5.0604,329.3864,153.4651,207.4368,0,U,48618,999,1911,0,-.262E-5,0
FENGYUN 4B,2021-047A,2026-07-21T20:25:16.408704,1.00276904,.00068513,0.2367,80.3227,274.4575,355.7780,0,U,48808,999,1891,0,-.328E-5,0
SXM-8,2021-049A,2026-07-22T05:47:05.849088,1.00271434,.0005906,0.0162,49.9106,344.7609,266.9437,0,U,48838,999,1893,0,-.202E-5,0
TIANLIAN 1-05,2021-063A,2026-07-21T21:05:51.357696,1.00269588,.00012903,1.6809,80.4116,84.1556,108.3495,0,U,49011,999,1842,0,.109E-5,0
STAR ONE D2,2021-069A,2026-07-21T21:18:11.334816,1.00269235,.00024153,0.0096,42.8430,99.4895,46.7904,0,U,49055,999,1829,0,0,0
EUTELSAT QUANTUM,2021-069B,2026-07-22T02:59:35.986848,1.00273888,.00022131,0.0379,281.7978,191.1601,279.5257,0,U,49056,999,1827,0,.129E-5,0
ZHONGXING-2E,2021-071A,2026-07-22T06:39:23.337216,1.00271687,.00013101,0.0427,229.1931,269.4567,359.2988,0,U,49062,999,1839,0,-.288E-5,0
